{
    "links": {
        "self": "http://www.neowsapp.com/rest/v1/neo/3838834?api_key=iIulBulltgU6a56xZRHN4H3l9WmuAYTsLGpBGhQ2"
    },
    "id": "3838834",
    "neo_reference_id": "3838834",
    "name": "(2019 DM)",
    "designation": "2019 DM",
    "nasa_jpl_url": "http://ssd.jpl.nasa.gov/sbdb.cgi?sstr=3838834",
    "absolute_magnitude_h": 24.5,
    "estimated_diameter": {
        "kilometers": {
            "estimated_diameter_min": 0.0334622374,
            "estimated_diameter_max": 0.0748238376
        },
        "meters": {
            "estimated_diameter_min": 33.4622374455,
            "estimated_diameter_max": 74.8238376074
        },
        "miles": {
            "estimated_diameter_min": 0.0207924639,
            "estimated_diameter_max": 0.0464933628
        },
        "feet": {
            "estimated_diameter_min": 109.7842471007,
            "estimated_diameter_max": 245.4850393757
        }
    },
    "is_potentially_hazardous_asteroid": false,
    "close_approach_data": [
        {
            "close_approach_date": "2019-03-03",
            "close_approach_date_full": "2019-Mar-03 17:36",
            "epoch_date_close_approach": 1551634560000,
            "relative_velocity": {
                "kilometers_per_second": "12.1562207043",
                "kilometers_per_hour": "43762.394535444",
                "miles_per_hour": "27192.2500934263"
            },
            "miss_distance": {
                "astronomical": "0.0179512039",
                "lunar": "6.9830183171",
                "kilometers": "2685461.867375693",
                "miles": "1668668.6271948434"
            },
            "orbiting_body": "Earth"
        },
        {
            "close_approach_date": "2024-02-12",
            "close_approach_date_full": "2024-Feb-12 05:38",
            "epoch_date_close_approach": 1707716280000,
            "relative_velocity": {
                "kilometers_per_second": "20.4309394172",
                "kilometers_per_hour": "73551.381901852",
                "miles_per_hour": "45701.9683822924"
            },
            "miss_distance": {
                "astronomical": "0.2977856091",
                "lunar": "115.8386019399",
                "kilometers": "44548092.838012617",
                "miles": "27680901.3090914346"
            },
            "orbiting_body": "Earth"
        }
    ],
    "orbital_data": {
        "orbit_id": "5",
        "orbit_determination_date": "2019-03-04 07:21:53",
        "first_observation_date": "2019-02-05",
        "last_observation_date": "2019-03-03",
        "data_arc_in_days": 26,
        "observations_used": 106,
        "orbit_uncertainty": "7",
        "minimum_orbit_intersection": ".00825036",
        "jupiter_tisserand_invariant": "3.853",
        "epoch_osculation": "2459000.5",
        "eccentricity": ".5130746442688481",
        "semi_major_axis": "1.830448717652906",
        "inclination": "7.059746357711071",
        "ascending_node_longitude": "160.8048106890973",
        "orbital_period": "904.5545780503491",
        "perihelion_distance": ".8912918929907719",
        "perihelion_argument": "49.76606123315501",
        "aphelion_distance": "2.769605542315039",
        "perihelion_time": "2458581.567068864285",
        "mean_anomaly": "166.7294145301013",
        "mean_motion": ".3979859355484482",
        "equinox": "J2000",
        "orbit_class": {
            "orbit_class_type": "APO",
            "orbit_class_description": "Near-Earth asteroid orbits which cross the Earth’s orbit similar to that of 1862 Apollo",
            "orbit_class_range": "a (semi-major axis) > 1.0 AU; q (perihelion) < 1.017 AU"
        }
    },
    "is_sentry_object": false
}